NORAD_CAT_ID,OBJECT_NAME,OBJECT_TYPE,EPOCH,MEAN_MOTION,ECCENTRICITY,INCLINATION,RA_OF_ASC_NODE,ARG_OF_PERICENTER,MEAN_ANOMALY,BSTAR,MEAN_MOTION_DOT,MEAN_MOTION_DDOT,TLE_LINE0,TLE_LINE1,TLE_LINE2,SEMIMAJOR_AXIS,PERIOD,APOGEE,PERIGEE,DECAYED
56463.0,STARLINK-6051,PAYLOAD,2023-10-10 06:00:02,14.98318593,0.0003424,70.0025,206.9643,264.4974,55.8815,-0.0010627,-0.00012747,0.0,0 STARLINK-6051,1 56463U 23064R   23283.25002315 -.00012747  00000-0 -10627-2 0  9996,2 56463  70.0025 206.9643 0003424 264.4974  55.8815 14.98318593 23568,6950.228,96.108,574.473,569.713,0.0
56463.0,STARLINK-6051,PAYLOAD,2023-10-10 14:00:01,14.98273196,0.0003469,70.0026,206.1239,257.764,60.017,0.0058213,0.00069962,0.0,0 STARLINK-6051,1 56463U 23064R   23283.58334491  .00069962  00000-0  58213-2 0  9997,2 56463  70.0026 206.1239 0003469 257.7640  60.0170 14.98273196  5770,6950.369,96.111,574.645,569.822,0.0
56463.0,STARLINK-6051,PAYLOAD,2023-10-10 22:00:01,14.98347628,0.0003496,70.003,205.2837,257.3601,57.9194,-0.0015819,-0.00018926,0.0,0 STARLINK-6051,1 56463U 23064R   23283.91668981 -.00018926  00000-0 -15819-2 0  9999,2 56463  70.0030 205.2837 0003496 257.3601  57.9194 14.98347628  5720,6950.138,96.106,574.433,569.574,0.0
56463.0,STARLINK-6051,PAYLOAD,2023-10-11 06:00:00,14.98322335,0.0003394,70.0028,204.4432,262.7968,49.9199,0.00055431,6.526e-05,0.0,0 STARLINK-6051,1 56463U 23064R   23284.25001157  .00006526  00000-0  55431-3 0  9999,2 56463  70.0028 204.4432 0003394 262.7968  49.9199 14.98322335 23715,6950.217,96.107,574.44,569.723,0.0
56463.0,STARLINK-6051,PAYLOAD,2023-10-11 14:00:01,14.98285947,0.0003376,70.003,203.6029,258.2748,51.9184,0.0060426,0.00072677,0.0,0 STARLINK-6051,1 56463U 23064R   23284.58334491  .00072677  00000-0  60426-2 0  9994,2 56463  70.0030 203.6029 0003376 258.2748  51.9184 14.98285947  5777,6950.329,96.11,574.541,569.848,0.0
56463.0,STARLINK-6051,PAYLOAD,2023-10-12 04:38:32,14.983388,0.0003258,70.001,202.0655,261.6258,98.4532,7.4314e-05,7.94e-06,0.0,0 STARLINK-6051,1 56463U 23064R   23285.19342906  .00000794  00000-0  74314-4 0  9996,2 56463  70.0010 202.0655 0003258 261.6258  98.4532 14.98338800 23507,6950.166,96.106,574.295,569.766,0.0
56463.0,STARLINK-6051,PAYLOAD,2023-10-12 19:03:45,14.98328842,0.0003188,70.0012,200.55,259.5848,100.4952,9.6133e-05,1.054e-05,0.0,0 STARLINK-6051,1 56463U 23064R   23285.79427426  .00001054  00000-0  96133-4 0  9996,2 56463  70.0012 200.5500 0003188 259.5848 100.4952 14.98328842 23958,6950.196,96.107,574.277,569.846,0.0
56463.0,STARLINK-6051,PAYLOAD,2023-10-12 22:16:01,14.98327415,0.0003224,70.0011,200.2142,257.8065,102.2733,0.00011968,1.335e-05,0.0,0 STARLINK-6051,1 56463U 23064R   23285.92779441  .00001335  00000-0  11968-3 0  9992,2 56463  70.0011 200.2142 0003224 257.8065 102.2733 14.98327415 23614,6950.201,96.107,574.307,569.825,0.0
56463.0,STARLINK-6051,PAYLOAD,2023-10-13 04:40:32,14.98337253,0.0003193,70.0012,199.5407,258.4328,101.6473,0.00021478,2.471e-05,0.0,0 STARLINK-6051,1 56463U 23064R   23286.19482520  .00002471  00000-0  21478-3 0  9990,2 56463  70.0012 199.5407 0003193 258.4328 101.6473 14.98337253 24013,6950.17,96.107,574.255,569.816,0.0
56463.0,STARLINK-6051,PAYLOAD,2023-10-13 11:05:05,14.98331936,0.0002893,70.0025,198.8671,266.3537,93.7291,7.2938e-05,7.77e-06,0.0,0 STARLINK-6051,1 56463U 23064R   23286.46187256  .00000777  00000-0  72938-4 0  9993,2 56463  70.0025 198.8671 0002893 266.3537  93.7291 14.98331936 24053,6950.187,96.107,574.063,570.041,0.0
56463.0,STARLINK-6051,PAYLOAD,2023-10-13 20:41:54,14.98332844,0.0002969,70.0026,197.8574,263.328,96.7542,6.9406e-05,7.35e-06,0.0,0 STARLINK-6051,1 56463U 23064R   23286.86243099  .00000735  00000-0  69406-4 0  9995,2 56463  70.0026 197.8574 0002969 263.3280  96.7542 14.98332844 23758,6950.184,96.107,574.113,569.986,0.0
56463.0,STARLINK-6051,PAYLOAD,2023-10-14 03:06:25,14.98346623,0.0003223,70.0006,197.1851,254.9107,105.1696,0.00014406,1.627e-05,0.0,0 STARLINK-6051,1 56463U 23064R   23287.12945770  .00001627  00000-0  14406-3 0  9990,2 56463  70.0006 197.1851 0003223 254.9107 105.1696 14.98346623 24155,6950.141,96.106,574.247,569.766,0.0
56463.0,STARLINK-6051,PAYLOAD,2023-10-14 11:07:06,14.98328673,0.0002752,70.0016,196.3428,272.1237,87.9607,-8.1587e-05,-1.066e-05,0.0,0 STARLINK-6051,1 56463U 23064R   23287.46327492 -.00001066  00000-0 -81587-4 0  9996,2 56463  70.0016 196.3428 0002752 272.1237  87.9607 14.98328673 23848,6950.197,96.107,573.975,570.149,0.0
56463.0,STARLINK-6051,PAYLOAD,2023-10-14 20:43:56,14.98315225,0.0002935,70.0017,195.3341,267.7203,92.362,-0.00025428,-3.124e-05,0.0,0 STARLINK-6051,1 56463U 23064R   23287.86384898 -.00003124  00000-0 -25428-3 0  9991,2 56463  70.0017 195.3341 0002935 267.7203  92.3620 14.98315225 24269,6950.239,96.108,574.143,570.064,0.0
56463.0,STARLINK-6051,PAYLOAD,2023-10-14 22:20:04,14.98314951,0.000293,70.0016,195.1658,267.3036,92.7788,-0.00025231,-3.101e-05,0.0,0 STARLINK-6051,1 56463U 23064R   23287.93060982 -.00003101  00000-0 -25231-3 0  9991,2 56463  70.0016 195.1658 0002930 267.3036  92.7788 14.98314951 23917,6950.239,96.108,574.141,570.068,0.0
56463.0,STARLINK-6051,PAYLOAD,2023-10-15 11:09:08,14.9833968,0.0002781,70.0018,193.8195,270.916,89.168,-0.00035167,-4.287e-05,0.0,0 STARLINK-6051,1 56463U 23064R   23288.46467856 -.00004287  00000-0 -35167-3 0  9996,2 56463  70.0018 193.8195 0002781 270.9160  89.1680 14.98339680 24358,6950.163,96.106,573.961,570.095,0.0
56463.0,STARLINK-6051,PAYLOAD,2023-10-15 20:45:56,14.9832797,0.0003168,70.0014,192.808,272.8001,87.2795,2.4051e-05,1.94e-06,0.0,0 STARLINK-6051,1 56463U 23064R   23288.86523741  .00000194  00000-0  24051-4 0  9998,2 56463  70.0014 192.8080 0003168 272.8001  87.2795 14.98327970 24053,6950.199,96.107,574.266,569.862,0.0
56463.0,STARLINK-6051,PAYLOAD,2023-10-16 03:10:27,14.98343733,0.000301,70.0006,192.1347,265.3441,94.7374,4.7398e-05,4.73e-06,0.0,0 STARLINK-6051,1 56463U 23064R   23289.13226597  .00000473  00000-0  47398-4 0  9997,2 56463  70.0006 192.1347 0003010 265.3441  94.7374 14.98343733 24459,6950.15,96.106,574.107,569.923,0.0
56463.0,STARLINK-6051,PAYLOAD,2023-10-16 11:11:08,14.98340282,0.0002973,70.0022,191.2934,274.6535,85.4285,-6.6967e-05,-8.92e-06,0.0,0 STARLINK-6051,1 56463U 23064R   23289.46607001 -.00000892  00000-0 -66967-4 0  9996,2 56463  70.0022 191.2934 0002973 274.6535  85.4285 14.98340282 24143,6950.161,96.106,574.092,569.96,0.0
56463.0,STARLINK-6051,PAYLOAD,2023-10-16 17:35:40,14.98322839,0.0002861,70.0014,190.6214,272.7741,87.309,0.00026009,3.011e-05,0.0,0 STARLINK-6051,1 56463U 23064R   23289.73311323  .00003011  00000-0  26009-3 0  9991,2 56463  70.0014 190.6214 0002861 272.7741  87.3090 14.98322839 24549,6950.215,96.107,574.068,570.092,0.0
56463.0,STARLINK-6051,PAYLOAD,2023-10-17 11:13:09,14.9832768,0.0002626,70.0022,188.7676,277.182,82.9041,0.00016322,1.855e-05,0.0,0 STARLINK-6051,1 56463U 23064R   23290.46747440  .00001855  00000-0  16322-3 0  9997,2 56463  70.0022 188.7676 0002626 277.1820  82.9041 14.98327680 24292,6950.2,96.107,573.89,570.24,0.0
56463.0,STARLINK-6051,PAYLOAD,2023-10-18 01:38:22,14.9833402,0.0002796,70.0015,187.2545,270.3046,89.7793,-3.6059e-05,-5.23e-06,0.0,0 STARLINK-6051,1 56463U 23064R   23291.06831301 -.00000523  00000-0 -36059-4 0  9997,2 56463  70.0015 187.2545 0002796 270.3046  89.7793 14.98334020 24381,6950.18,96.107,573.989,570.102,0.0
56463.0,STARLINK-6051,PAYLOAD,2023-10-18 03:14:30,14.98334641,0.0002791,70.0016,187.0861,270.4548,89.6291,-3.0592e-05,-4.58e-06,0.0,0 STARLINK-6051,1 56463U 23064R   23291.13507231 -.00000458  00000-0 -30592-4 0  9990,2 56463  70.0016 187.0861 0002791 270.4548  89.6291 14.98334641 24756,6950.179,96.107,573.983,570.104,0.0
56463.0,STARLINK-6051,PAYLOAD,2023-10-19 03:16:30,14.98339573,0.0002773,70.0027,184.5602,273.3694,86.7147,1.753e-05,1.16e-06,0.0,0 STARLINK-6051,1 56463U 23064R   23292.13646397  .00000116  00000-0  17530-4 0  9994,2 56463  70.0027 184.5602 0002773 273.3694  86.7147 14.98339573 24901,6950.163,96.106,573.956,570.101,0.0
56463.0,STARLINK-6051,PAYLOAD,2023-10-19 22:30:07,14.98347135,0.0002115,70.0027,182.5397,267.182,92.9097,-0.00031224,-3.818e-05,0.0,0 STARLINK-6051,1 56463U 23064R   23292.93758521 -.00003818  00000-0 -31224-3 0  9994,2 56463  70.0027 182.5397 0002115 267.1820  92.9097 14.98347135 24661,6950.14,96.106,573.475,570.535,0.0
56463.0,STARLINK-6051,PAYLOAD,2023-10-20 03:18:30,14.98340521,0.0002673,70.0012,182.0368,283.3652,76.7209,0.00011087,1.231e-05,0.0,0 STARLINK-6051,1 56463U 23064R   23293.13785803  .00001231  00000-0  11087-3 0  9990,2 56463  70.0012 182.0368 0002673 283.3652  76.7209 14.98340521 25051,6950.16,96.106,573.883,570.168,0.0
56463.0,STARLINK-6051,PAYLOAD,2023-10-20 22:32:09,14.98308565,0.0002305,70.0043,180.0168,241.4383,118.6545,9.7873e-06,2.4e-07,0.0,0 STARLINK-6051,1 56463U 23064R   23293.93899980  .00000024  00000-0  97873-5 0  9998,2 56463  70.0043 180.0168 0002305 241.4383 118.6545 14.98308565 24813,6950.259,96.108,573.726,570.522,0.0
56463.0,STARLINK-6051,PAYLOAD,2023-10-21 01:44:25,14.98312993,0.0002424,70.0021,179.6804,260.859,99.2295,-8.9761e-05,-1.163e-05,0.0,0 STARLINK-6051,1 56463U 23064R   23294.07252150 -.00001163  00000-0 -89761-4 0  9999,2 56463  70.0021 179.6804 0002424 260.8590  99.2295 14.98312993 25195,6950.245,96.108,573.795,570.426,0.0
56463.0,STARLINK-6051,PAYLOAD,2023-10-21 20:58:01,14.98332925,0.0002431,70.0014,177.6601,258.7066,101.382,7.9782e-05,8.59e-06,0.0,0 STARLINK-6051,1 56463U 23064R   23294.87362399  .00000859  00000-0  79782-4 0  9995,2 56463  70.0014 177.6601 0002431 258.7066 101.3820 14.98332925 25312,6950.184,96.107,573.738,570.359,0.0
56463.0,STARLINK-6051,PAYLOAD,2023-10-21 22:34:08,14.98338302,0.0003073,70.0,177.4918,269.5999,90.4808,0.00011529,1.283e-05,0.0,0 STARLINK-6051,1 56463U 23064R   23294.94037900  .00001283  00000-0  11529-3 0  9996,2 56463  70.0000 177.4918 0003073 269.5999  90.4808 14.98338302 24963,6950.167,96.106,574.168,569.896,0.0
